{
  "norad_id": 67711,
  "name": "STARLINK-36687",
  "history": [
    {
      "epoch": "2026-03-28T22:00:01.999584Z",
      "apogee_km": 443.98106259690667,
      "perigee_km": 441.5997404224918,
      "latitude_deg": -22.365181304277684,
      "longitude_deg": 47.054054928157534,
      "height_km": 451.8054627086341,
      "semi_major_axis_km": 6820.927401509699,
      "eccentricity": 0.00017456,
      "inclination_deg": 97.2861,
      "raan_deg": 200.3938,
      "arg_perigee_deg": 89.7423,
      "mean_anomaly_deg": 247.9661,
      "mean_motion_rev_day": 15.41124133
    },
    {
      "epoch": "2026-03-29T04:00:01.999584Z",
      "apogee_km": 447.4046990474153,
      "perigee_km": 444.78555875634265,
      "latitude_deg": -74.9517574040865,
      "longitude_deg": -17.718056223166204,
      "height_km": 474.56323063214154,
      "semi_major_axis_km": 6824.232128901879,
      "eccentricity": 0.0001919,
      "inclination_deg": 97.2857,
      "raan_deg": 200.6436,
      "arg_perigee_deg": 78.7756,
      "mean_anomaly_deg": 204.5683,
      "mean_motion_rev_day": 15.40004803
    },
    {
      "epoch": "2026-03-30T04:00:01.999584Z",
      "apogee_km": 459.0033942593236,
      "perigee_km": 455.738755602737,
      "latitude_deg": 55.639749036544735,
      "longitude_deg": -56.65071866648862,
      "height_km": 465.0432350139277,
      "semi_major_axis_km": 6835.50807493103,
      "eccentricity": 0.0002388,
      "inclination_deg": 97.2854,
      "raan_deg": 201.6367,
      "arg_perigee_deg": 56.446,
      "mean_anomaly_deg": 359.7744,
      "mean_motion_rev_day": 15.36195756
    }
  ]
}